0 SL-8 DEB
1 05301U 71035D   13281.90982477  .00001729  00000-0  35215-3 0  6722
2 05301 074.0350 210.3374 0011883 134.5684 294.1736 14.61774767231370
0 SL-8 DEB
1 05301U 71035D   13287.19508891  .00001714  00000-0  34898-3 0  6745
2 05301 074.0353 200.2238 0011742 122.0214 028.5076 14.61791790232142
0 SL-8 DEB
1 05301U 71035D   13289.44746706  .00002424  00000-0  49083-3 0  6756
2 05301 074.0361 195.9152 0011717 117.3276 001.3923 14.61802948232477
0 SL-8 DEB
1 05301U 71035D   13291.76353330  .00002198  00000-0  44557-3 0  6761
2 05301 074.0354 191.4833 0011739 111.6260 310.3893 14.61812885232818
0 SL-8 DEB
1 05301U 71035D   13294.17634251  .00002561  00000-0  51819-3 0  6777
2 05301 074.0346 186.8663 0011764 106.0077 048.2947 14.61821517233168
